[{"OBJECT_NAME":"ETRSS-1","OBJECT_ID":"2019-093B","EPOCH":"2026-03-09T22:36:35.084736","MEAN_MOTION":14.95232474,"ECCENTRICITY":0.00120616,"INCLINATION":97.7844,"RA_OF_ASC_NODE":153.9141,"ARG_OF_PERICENTER":31.3849,"MEAN_ANOMALY":328.8089,"EPHEMERIS_TYPE":0,"CLASSIFICATION_TYPE":"U","NORAD_CAT_ID":44880,"ELEMENT_SET_NO":999,"REV_AT_EPOCH":33722,"BSTAR":0.00018246379,"MEAN_MOTION_DOT":1.951e-5,"MEAN_MOTION_DDOT":0},{"OBJECT_NAME":"STARLINK-5473","OBJECT_ID":"2023-021AM","EPOCH":"2026-03-09T16:20:51.896544","MEAN_MOTION":14.98332272,"ECCENTRICITY":0.00032059,"INCLINATION":70.0014,"RA_OF_ASC_NODE":164.464,"ARG_OF_PERICENTER":269.2731,"MEAN_ANOMALY":90.8061,"EPHEMERIS_TYPE":0,"CLASSIFICATION_TYPE":"U","NORAD_CAT_ID":55663,"ELEMENT_SET_NO":999,"REV_AT_EPOCH":16927,"BSTAR":-1.0487234e-5,"MEAN_MOTION_DOT":-2.18e-6,"MEAN_MOTION_DDOT":0}]
